[{"OBJECT_NAME":"MARAFON-D GVM","OBJECT_ID":"2024-039V","EPOCH":"2026-03-09T22:15:16.896096","MEAN_MOTION":14.45961623,"ECCENTRICITY":0.00149761,"INCLINATION":88.9816,"RA_OF_ASC_NODE":295.8376,"ARG_OF_PERICENTER":319.0552,"MEAN_ANOMALY":40.9527,"EPHEMERIS_TYPE":0,"CLASSIFICATION_TYPE":"U","NORAD_CAT_ID":59072,"ELEMENT_SET_NO":999,"REV_AT_EPOCH":10684,"BSTAR":8.0103078e-5,"MEAN_MOTION_DOT":3.0e-6,"MEAN_MOTION_DDOT":0},{"OBJECT_NAME":"DMSP 5D-3 F17 DEB","OBJECT_ID":"2006-050BV","EPOCH":"2026-03-09T23:06:05.469984","MEAN_MOTION":14.43479266,"ECCENTRICITY":0.00073952,"INCLINATION":98.5164,"RA_OF_ASC_NODE":113.7372,"ARG_OF_PERICENTER":60.768,"MEAN_ANOMALY":299.4249,"EPHEMERIS_TYPE":0,"CLASSIFICATION_TYPE":"U","NORAD_CAT_ID":29637,"ELEMENT_SET_NO":999,"REV_AT_EPOCH":86,"BSTAR":0.0015452515,"MEAN_MOTION_DOT":5.186e-5,"MEAN_MOTION_DDOT":0}]
